KUIPER-00008            
1 63724U 25088A   25227.60667519  .00003701  00000+0  32508-3 0  9994
2 63724  51.8911 306.5178 0011452 124.2745 235.9312 14.98791165 17146
KUIPER-00009            
1 63725U 25088B   25227.58336806  .00013496  00000+0  10952-2 0  9994
2 63725  51.8881 299.0722 0012581 139.6217 239.5484 14.99851095  2528
KUIPER-00010            
1 63726U 25088C   25227.46049486  .00015651  00000+0  44043-3 0  9991
2 63726  51.8640 294.7192 0008871 137.0422 223.1259 15.36616852 16911
KUIPER-00011            
1 63727U 25088D   25227.55898980  .00005521  00000+0  16575-3 0  9997
2 63727  51.8573 294.5508 0009898 147.4638 212.6960 15.35991492 17064
KUIPER-00012            
1 63728U 25088E   25227.49026462  .00014216  00000+0  40572-3 0  9994
2 63728  51.8558 294.8273 0010372 147.3796 212.7832 15.36246202 17009
KUIPER-00013            
1 63729U 25088F   25227.58336806 -.00044314  00000+0 -40258-2 0  9995
2 63729  51.8903 299.9776 0009475  77.7290 222.7199 14.94834914  5780
KUIPER-00014            
1 63730U 25088G   25227.58336806 -.00713814  00000+0 -64742-1 0  9998
2 63730  51.9018 301.0239 0009700 128.5449  96.7542 14.97260216  5356
KUIPER-00015            
1 63731U 25088H   25227.50907140  .00000278  00000+0  64271-4 0  9997
2 63731  51.9003 313.0993 0011312 117.4445 242.7670 14.81155155 17127
